{"type": "FeatureCollection", "features": [ {"type": "Feature", "properties": {"norad_id": 28659, "name": "DIRECTV 8", "group": "intelsat", "lat": -0.03296538301827445, "lon": -170.06079771613264, "alt_km": 35781.25446187426, "timestamp": "2025-12-02T15:49:06.850563+00:00", "meta": {"OBJECT_NAME": "DIRECTV 8", "OBJECT_ID": "2005-019A", "EPOCH": "2025-12-02T06:22:15.134016", "MEAN_MOTION": 1.00271218, "ECCENTRICITY": 0.0003237, "INCLINATION": 0.0128, "RA_OF_ASC_NODE": 290.6106, "ARG_OF_PERICENTER": 328.1832, "MEAN_ANOMALY": 149.1053, "EPHEMERIS_TYPE": 0, "CLASSIFICATION_TYPE": "U", "NORAD_CAT_ID": 28659, "ELEMENT_SET_NO": 999, "REV_AT_EPOCH": 7509, "BSTAR": 0, "MEAN_MOTION_DOT": 2.2e-07, "MEAN_MOTION_DDOT": 0}, "tle": {"line1": "1 28659U 05019A   25336.26545294  .00000022  00000+0  00000+0 0  9993", "line2": "2 28659   0.0128 290.6106 0003237 328.1832 149.1053  1.00271218 75095"}}, "geometry": {"type": "Point", "coordinates": [-170.06079771613264, -0.03296538301827445]}}, {"type": "Feature", "properties": {"norad_id": 28702, "name": "GALAXY 28 (G-28)", "group": "intelsat", "lat": 1.81126437579169, "lon": -139.68696158704176, "alt_km": 35777.846621636556, "timestamp": "2025-12-02T15:49:06.850575+00:00", "meta": {"OBJECT_NAME": "GALAXY 28 (G-28)", "OBJECT_ID": "2005-022A", "EPOCH": "2025-12-02T06:30:51.808608", "MEAN_MOTION": 1.00270629, "ECCENTRICITY": 0.00026644, "INCLINATION": 2.7919, "RA_OF_ASC_NODE": 81.4004, "ARG_OF_PERICENTER": 181.283, "MEAN_ANOMALY": 177.6966, "EPHEMERIS_TYPE": 0, "CLASSIFICATION_TYPE": "U", "NORAD_CAT_ID": 28702, "ELEMENT_SET_NO": 999, "REV_AT_EPOCH": 4999, "BSTAR": 0, "MEAN_MOTION_DOT": -1.67e-06, "MEAN_MOTION_DDOT": 0}, "tle": {"line1": "1 28702U 05022A   25336.27143297 -.00000167  00000+0  00000+0 0  9995", "line2": "2 28702   2.7919  81.4004 0002664 181.2830 177.6966  1.00270629 49997"}}, "geometry": {"type": "Point", "coordinates": [-139.68696158704176, 1.81126437579169]}}, {"type": "Feature", "properties": {"norad_id": 29236, "name": "GALAXY 16 (G-16)", "group": "intelsat", "lat": -0.02137230829617836, "lon": -150.0178884245267, "alt_km": 35777.566555106794, "timestamp": "2025-12-02T15:49:06.850587+00:00", "meta": {"OBJECT_NAME": "GALAXY 16 (G-16)", "OBJECT_ID": "2006-023A", "EPOCH": "2025-12-02T06:27:52.095744", "MEAN_MOTION": 1.00270275, "ECCENTRICITY": 0.00028497, "INCLINATION": 0.0259, "RA_OF_ASC_NODE": 222.8846, "ARG_OF_PERICENTER": 29.2853, "MEAN_ANOMALY": 177.1686, "EPHEMERIS_TYPE": 0, "CLASSIFICATION_TYPE": "U", "NORAD_CAT_ID": 29236, "ELEMENT_SET_NO": 999, "REV_AT_EPOCH": 7099, "BSTAR": 0, "MEAN_MOTION_DOT": -1.06e-06, "MEAN_MOTION_DDOT": 0}, "tle": {"line1": "1 29236U 06023A   25336.26935296 -.00000106  00000+0  00000+0 0  9990", "line2": "2 29236   0.0259 222.8846 0002849  29.2853 177.1686  1.00270275 70999"}}, "geometry": {"type": "Point", "coordinates": [-150.0178884245267, -0.02137230829617836]}}, {"type": "Feature", "properties": {"norad_id": 29494, "name": "DIRECTV 9S", "group": "intelsat", "lat": 1.5522178063302483, "lon": -152.19649167057887, "alt_km": 35776.23192212365, "timestamp": "2025-12-02T15:49:06.850598+00:00", "meta": {"OBJECT_NAME": "DIRECTV 9S", "OBJECT_ID": "2006-043A", "EPOCH": "2025-12-02T06:27:14.656032", "MEAN_MOTION": 1.00270686, "ECCENTRICITY": 0.00031513, "INCLINATION": 1.9108, "RA_OF_ASC_NODE": 83.3228, "ARG_OF_PERICENTER": 166.2295, "MEAN_ANOMALY": 177.4346, "EPHEMERIS_TYPE": 0, "CLASSIFICATION_TYPE": "U", "NORAD_CAT_ID": 29494, "ELEMENT_SET_NO": 999, "REV_AT_EPOCH": 4940, "BSTAR": 0, "MEAN_MOTION_DOT": -9.3e-07, "MEAN_MOTION_DDOT": 0}, "tle": {"line1": "1 29494U 06043A   25336.26891963 -.00000093  00000+0  00000+0 0  9995", "line2": "2 29494   1.9108  83.3228 0003151 166.2295 177.4346  1.00270686 49405"}}, "geometry": {"type": "Point", "coordinates": [-152.19649167057887, 1.5522178063302483]}}, {"type": "Feature", "properties": {"norad_id": 31307, "name": "GALAXY 17 (G-17)", "group": "intelsat", "lat": 1.5102460710703145, "lon": -135.97210337313984, "alt_km": 35761.22247184553, "timestamp": "2025-12-02T15:49:06.850610+00:00", "meta": {"OBJECT_NAME": "GALAXY 17 (G-17)", "OBJECT_ID": "2007-016B", "EPOCH": "2025-12-02T06:31:51.714048", "MEAN_MOTION": 1.00270397, "ECCENTRICITY": 0.00061051, "INCLINATION": 2.4713, "RA_OF_ASC_NODE": 82.4071, "ARG_OF_PERICENTER": 155.6782, "MEAN_ANOMALY": 206.2651, "EPHEMERIS_TYPE": 0, "CLASSIFICATION_TYPE": "U", "NORAD_CAT_ID": 31307, "ELEMENT_SET_NO": 999, "REV_AT_EPOCH": 6783, "BSTAR": 0, "MEAN_MOTION_DOT": -1.86e-06, "MEAN_MOTION_DDOT": 0}, "tle": {"line1": "1 31307U 07016B   25336.27212632 -.00000186  00000+0  00000+0 0  9996", "line2": "2 31307   2.4713  82.4071 0006105 155.6782 206.2651  1.00270397 67836"}}, "geometry": {"type": "Point", "coordinates": [-135.97210337313984, 1.5102460710703145]}}, {"type": "Feature", "properties": {"norad_id": 31862, "name": "DIRECTV 10", "group": "intelsat", "lat": -0.02300643890918611, "lon": -153.7911626764012, "alt_km": 35787.23742812841, "timestamp": "2025-12-02T15:49:06.850622+00:00", "meta": {"OBJECT_NAME": "DIRECTV 10", "OBJECT_ID": "2007-032A", "EPOCH": "2025-12-02T06:26:52.192032", "MEAN_MOTION": 1.00267105, "ECCENTRICITY": 4.39e-06, "INCLINATION": 0.0021, "RA_OF_ASC_NODE": 329.0778, "ARG_OF_PERICENTER": 261.3273, "MEAN_ANOMALY": 194.8925, "EPHEMERIS_TYPE": 0, "CLASSIFICATION_TYPE": "U", "NORAD_CAT_ID": 31862, "ELEMENT_SET_NO": 999, "REV_AT_EPOCH": 4361, "BSTAR": 0, "MEAN_MOTION_DOT": -8.2e-07, "MEAN_MOTION_DDOT": 0}, "tle": {"line1": "1 31862U 07032A   25336.26865963 -.00000082  00000+0  00000+0 0  9995", "line2": "2 31862   0.0021 329.0778 0000043 261.3273 194.8925  1.00267105 43616"}}, "geometry": {"type": "Point", "coordinates": [-153.7911626764012, -0.02300643890918611]}}, {"type": "Feature", "properties": {"norad_id": 32253, "name": "INTELSAT 11 (IS-11)", "group": "intelsat", "lat": 2.017303721067913, "lon": -140.8947189738986, "alt_km": 36096.06278609954, "timestamp": "2025-12-02T15:49:06.850634+00:00", "meta": {"OBJECT_NAME": "INTELSAT 11 (IS-11)", "OBJECT_ID": "2007-044B", "EPOCH": "2025-12-02T06:30:59.297760", "MEAN_MOTION": 0.99047483, "ECCENTRICITY": 0.00092509, "INCLINATION": 3.0506, "RA_OF_ASC_NODE": 81.0945, "ARG_OF_PERICENTER": 160.3596, "MEAN_ANOMALY": 199.4695, "EPHEMERIS_TYPE": 0, "CLASSIFICATION_TYPE": "U", "NORAD_CAT_ID": 32253, "ELEMENT_SET_NO": 999, "REV_AT_EPOCH": 6649, "BSTAR": 0, "MEAN_MOTION_DOT": -1.3e-07, "MEAN_MOTION_DDOT": 0}, "tle": {"line1": "1 32253U 07044B   25336.27151965 -.00000013  00000+0  00000+0 0  9998", "line2": "2 32253   3.0506  81.0945 0009250 160.3596 199.4695  0.99047483 66496"}}, "geometry": {"type": "Point", "coordinates": [-140.8947189738986, 2.017303721067913]}}, {"type": "Feature", "properties": {"norad_id": 32388, "name": "HORIZONS-2", "group": "intelsat", "lat": 0.9533096087091234, "lon": -124.78248710035508, "alt_km": 35767.35982260895, "timestamp": "2025-12-02T15:49:06.850646+00:00", "meta": {"OBJECT_NAME": "HORIZONS-2", "OBJECT_ID": "2007-063B", "EPOCH": "2025-12-02T06:35:06.402624", "MEAN_MOTION": 1.00272496, "ECCENTRICITY": 0.0004904, "INCLINATION": 2.092, "RA_OF_ASC_NODE": 83.0773, "ARG_OF_PERICENTER": 179.6599, "MEAN_ANOMALY": 193.6329, "EPHEMERIS_TYPE": 0, "CLASSIFICATION_TYPE": "U", "NORAD_CAT_ID": 32388, "ELEMENT_SET_NO": 999, "REV_AT_EPOCH": 6584, "BSTAR": 0, "MEAN_MOTION_DOT": -2.33e-06, "MEAN_MOTION_DDOT": 0}, "tle": {"line1": "1 32388U 07063B   25336.27437966 -.00000233  00000+0  00000+0 0  9990", "line2": "2 32388   2.0920  83.0773 0004904 179.6599 193.6329  1.00272496 65847"}}, "geometry": {"type": "Point", "coordinates": [-124.78248710035508, 0.9533096087091234]}}, {"type": "Feature", "properties": {"norad_id": 32729, "name": "DIRECTV 11", "group": "intelsat", "lat": -0.006734668274715356, "lon": -150.18194242301826, "alt_km": 35786.15960482262, "timestamp": "2025-12-02T15:49:06.850658+00:00", "meta": {"OBJECT_NAME": "DIRECTV 11", "OBJECT_ID": "2008-013A", "EPOCH": "2025-12-02T06:27:52.095744", "MEAN_MOTION": 1.00268446, "ECCENTRICITY": 2.096e-05, "INCLINATION": 0.0091, "RA_OF_ASC_NODE": 217.7805, "ARG_OF_PERICENTER": 342.7598, "MEAN_ANOMALY": 228.6143, "EPHEMERIS_TYPE": 0, "CLASSIFICATION_TYPE": "U", "NORAD_CAT_ID": 32729, "ELEMENT_SET_NO": 999, "REV_AT_EPOCH": 4361, "BSTAR": 0, "MEAN_MOTION_DOT": -1.04e-06, "MEAN_MOTION_DDOT": 0}, "tle": {"line1": "1 32729U 08013A   25336.26935296 -.00000104  00000+0  00000+0 0  9990", "line2": "2 32729   0.0091 217.7805 0000209 342.7598 228.6143  1.00268446 43615"}}, "geometry": {"type": "Point", "coordinates": [-150.18194242301826, -0.006734668274715356]}}, {"type": "Feature", "properties": {"norad_id": 32951, "name": "GALAXY 18 (G-18)", "group": "intelsat", "lat": -0.024190203933928466, "lon": -174.0516007806846, "alt_km": 35780.577661189796, "timestamp": "2025-12-02T15:49:06.850670+00:00", "meta": {"OBJECT_NAME": "GALAXY 18 (G-18)", "OBJECT_ID": "2008-024A", "EPOCH": "2025-12-02T05:43:42.852288", "MEAN_MOTION": 1.00272645, "ECCENTRICITY": 0.00033997, "INCLINATION": 0.0211, "RA_OF_ASC_NODE": 342.0453, "ARG_OF_PERICENTER": 272.6422, "MEAN_ANOMALY": 139.5595, "EPHEMERIS_TYPE": 0, "CLASSIFICATION_TYPE": "U", "NORAD_CAT_ID": 32951, "ELEMENT_SET_NO": 999, "REV_AT_EPOCH": 4387, "BSTAR": 0, "MEAN_MOTION_DOT": 0, "MEAN_MOTION_DDOT": 0}, "tle": {"line1": "1 32951U 08024A   25336.23869042  .00000000  00000+0  00000+0 0  9995", "line2": "2 32951   0.0211 342.0453 0003399 272.6422 139.5595  1.00272645 43872"}}, "geometry": {"type": "Point", "coordinates": [-174.0516007806846, -0.024190203933928466]}}]}